OBJECT_NAME,OBJECT_ID,EPOCH,MEAN_MOTION,ECCENTRICITY,INCLINATION,RA_OF_ASC_NODE,ARG_OF_PERICENTER,MEAN_ANOMALY,EPHEMERIS_TYPE,CLASSIFICATION_TYPE,NORAD_CAT_ID,ELEMENT_SET_NO,REV_AT_EPOCH,BSTAR,MEAN_MOTION_DOT,MEAN_MOTION_DDOT
FENGYUN 1C DEB,1999-025BYN,2021-02-26T21:59:57.389280,14.10902704,.0065568,99.1032,40.3096,154.5299,205.9126,0,U,31547,999,39263,.41379E-3,.712E-5,0
FENGYUN 1C DEB,1999-025BYP,2021-02-27T13:46:36.096960,14.49189287,.0108362,99.3679,201.7336,225.0395,134.1971,0,U,31548,999,72586,.58083E-3,.2323E-4,0
FENGYUN 1C DEB,1999-025BYR,2021-02-27T08:13:33.164544,14.30660975,.0217481,98.4068,98.0577,88.5266,274.0817,0,U,31550,999,40384,.12127E-3,.364E-5,0
FENGYUN 1C DEB,1999-025BYS,2021-02-26T13:38:55.032864,14.14110886,.0087787,98.8195,325.8059,204.4718,155.2276,0,U,31551,999,45117,.11567E-2,.2241E-4,0
FENGYUN 1C DEB,1999-025BYT,2021-02-26T15:45:32.314464,14.12428122,.0141013,98.5863,196.8763,64.3962,297.1706,0,U,31552,999,70988,.43734E-3,.846E-5,0
FENGYUN 1C DEB,1999-025BYU,2021-02-26T22:58:27.561216,14.14817125,.0037951,99.0576,51.8349,54.5795,332.2443,0,U,31553,999,71071,.48947E-3,.905E-5,0
FENGYUN 1C DEB,1999-025BYV,2021-02-27T09:54:30.240864,14.19538080,.0061009,98.9246,133.5586,70.6001,290.1756,0,U,31554,999,39870,.5989E-3,.1241E-4,0
FENGYUN 1C DEB,1999-025BYW,2021-02-27T20:48:15.562656,14.22961445,.0203758,99.1744,271.1559,218.5371,140.1110,0,U,31555,999,71674,.24468E-3,.629E-5,0
FENGYUN 1C DEB,1999-025BYY,2021-02-26T19:51:38.326752,14.35343664,.01858,98.2802,89.6083,128.7807,233.0142,0,U,31557,999,35963,.61884E-4,.17E-5,0
FENGYUN 1C DEB,1999-025BYZ,2021-02-27T07:10:33.079008,14.34695173,.0222947,98.9441,236.0398,14.0624,110.2401,0,U,31558,999,72325,.37718E-4,.85E-6,0
FENGYUN 1C DEB,1999-025BZA,2021-02-27T09:20:46.277664,14.38843146,.0087313,98.9322,270.2799,31.2959,91.8284,0,U,31559,999,72272,.16749E-3,.489E-5,0
FENGYUN 1C DEB,1999-025BZB,2021-02-26T19:33:28.275840,14.20611604,.0121001,98.8294,97.6473,318.1646,41.0329,0,U,31560,999,71769,.19099E-4,-.2E-7,0
FENGYUN 1C DEB,1999-025BZC,2021-02-26T20:55:07.948128,14.00206961,.0059376,98.8466,104.1861,23.7979,149.9645,0,U,31561,999,70674,.21444E-3,.279E-5,0
FENGYUN 1C DEB,1999-025BZD,2021-02-26T22:56:16.965888,14.31124415,.0066828,99.3027,65.8303,324.5721,35.1030,0,U,31562,999,72012,.17357E-3,.418E-5,0
FENGYUN 1C DEB,1999-025BZE,2021-02-27T11:38:50.257824,14.51864618,.0141815,98.9979,66.7600,348.0505,11.7335,0,U,31563,999,73088,.10293E-3,.412E-5,0
FENGYUN 1C DEB,1999-025BZF,2021-02-19T11:27:09.745632,15.65436830,.0009224,98.7206,318.5673,108.1276,252.0985,0,U,31564,999,73272,.73567E-2,.809553E-2,0
FENGYUN 1C DEB,1999-025BZG,2021-02-27T07:19:36.144480,14.08589510,.0081932,100.7341,267.3291,44.6438,316.1285,0,U,31565,999,39548,.86468E-3,.1474E-4,0
FENGYUN 1C DEB,1999-025BZH,2021-02-27T11:11:46.525344,14.18304426,.0031216,99.0062,53.8019,358.4954,153.5339,0,U,31566,999,71478,.50825E-3,.1006E-4,0
FENGYUN 1C DEB,1999-025BZJ,2021-02-26T21:36:45.468864,13.75583975,.021531,102.3155,94.8562,119.5231,242.7564,0,U,31567,999,43243,.1069E-2,.1155E-4,0
FENGYUN 1C DEB,1999-025BZK,2021-02-27T09:50:23.645760,13.87867029,.0150037,102.0672,113.8502,65.7306,295.9432,0,U,31568,999,70216,.52904E-3,.621E-5,0
FENGYUN 1C DEB,1999-025BZL,2021-02-26T23:20:27.856896,13.80476476,.0202523,102.6222,312.7765,147.1633,226.7745,0,U,31569,999,69439,.81957E-3,.932E-5,0
FENGYUN 1C DEB,1999-025BZM,2021-02-27T09:17:38.820768,13.98840963,.020215,102.6073,115.9760,163.7083,197.0692,0,U,31570,999,38754,.53025E-3,.837E-5,0
FENGYUN 1C DEB,1999-025BZN,2021-02-26T09:47:18.452544,14.57338981,.0223879,98.4897,111.2654,125.3362,236.8990,0,U,31608,999,73030,.12227E-3,.721E-5,0
FENGYUN 1C DEB,1999-025BZP,2021-02-22T10:30:30.305664,13.99963025,.0111275,99.1793,29.9812,142.2028,11.7458,0,U,31609,999,41436,.7068E-3,.1052E-4,0
FENGYUN 1C DEB,1999-025BZR,2021-02-27T09:46:01.403616,14.36240712,.0107326,98.9817,229.5253,24.0993,6.0088,0,U,31611,999,41893,.68409E-3,.2084E-4,0
FENGYUN 1C DEB,1999-025BZS,2021-02-27T06:14:54.944160,14.82272632,.0177824,100.3850,92.6957,133.8581,227.7474,0,U,31612,999,73925,.99153E-4,.939E-5,0
FENGYUN 1C DEB,1999-025BZT,2021-02-26T20:16:27.213024,13.56189143,.0363013,98.4528,100.2193,21.5432,340.0553,0,U,31613,999,68031,.32839E-3,.318E-5,0
FENGYUN 1C DEB,1999-025BZU,2021-02-27T07:54:40.758624,14.27488518,.0067132,98.9938,199.3556,153.5932,270.6753,0,U,31614,999,71170,.62267E-3,.152E-4,0
FENGYUN 1C DEB,1999-025BZV,2021-02-27T05:28:51.485952,14.03978820,.0238015,99.1393,42.8375,213.6208,144.9662,0,U,31615,999,40540,.72686E-3,.1432E-4,0
FENGYUN 1C DEB,1999-025BZX,2021-02-24T18:11:13.727328,14.42646865,.013302,96.7172,40.8413,314.3691,44.6667,0,U,31617,999,35510,.48945E-3,.1776E-4,0
FENGYUN 1C DEB,1999-025BZY,2021-02-27T05:53:41.320032,14.17275655,.0164997,99.4950,69.8087,205.7022,153.5883,0,U,31618,999,45460,.61862E-4,.92E-6,0
FENGYUN 1C DEB,1999-025BZZ,2021-02-27T11:19:11.551872,14.12977361,.02562,99.0724,147.2495,346.5621,12.8814,0,U,31619,999,38450,.45137E-3,.1099E-4,0
FENGYUN 1C DEB,1999-025CAA,2021-02-24T20:41:55.729248,14.16798789,.0029399,98.9878,91.9550,47.6134,312.7521,0,U,31620,999,40921,.51041E-3,.981E-5,0
FENGYUN 1C DEB,1999-025CAC,2021-02-27T09:56:25.592640,14.18771995,.0019209,98.9106,117.3279,6.1221,125.8145,0,U,31622,999,70860,.4265E-3,.843E-5,0
FENGYUN 1C DEB,1999-025CAD,2021-02-27T16:19:41.550528,13.80578756,.0198512,97.6333,218.1366,191.4828,168.1766,0,U,31623,999,69729,.10849E-3,.101E-5,0
FENGYUN 1C DEB,1999-025CAE,2021-02-27T19:14:54.667968,14.42363716,.0055503,99.6592,357.6422,27.2638,359.9532,0,U,31624,999,72049,.3943E-3,.1272E-4,0
FENGYUN 1C DEB,1999-025CAF,2021-02-27T09:06:04.728960,14.51461791,.0157176,98.8586,21.3986,268.2586,245.0214,0,U,31625,999,72991,.34309E-4,.99E-6,0
FENGYUN 1C DEB,1999-025CAG,2021-02-27T07:54:51.128352,14.31989859,.0031768,101.2988,104.7938,176.9849,183.1522,0,U,31626,999,38806,.60215E-3,.1557E-4,0
FENGYUN 1C DEB,1999-025CAH,2021-02-27T09:35:24.520704,14.23655609,.0060987,98.6908,110.1933,231.8995,127.6675,0,U,31627,999,39803,.27338E-3,.591E-5,0
FENGYUN 1C DEB,1999-025CAJ,2021-02-27T09:10:10.181856,13.76182306,.0184272,102.2670,98.5174,28.6330,332.4782,0,U,31628,999,69167,.66868E-3,.67E-5,0
FENGYUN 1C DEB,1999-025CAK,2021-02-26T22:19:52.899168,13.95680351,.0127957,102.1468,227.8756,17.7371,342.8186,0,U,31629,999,69920,.59298E-3,.796E-5,0
FENGYUN 1C DEB,1999-025CAL,2021-02-27T17:30:10.842624,14.58190601,.0316337,97.9049,225.3240,205.5736,152.9525,0,U,31630,999,73146,.20408E-3,.1829E-4,0
FENGYUN 1C DEB,1999-025CAM,2021-02-27T14:41:40.625664,14.05884082,.0187204,99.3302,192.4577,280.5704,77.4424,0,U,31631,999,70199,.92449E-3,.1723E-4,0
FENGYUN 1C DEB,1999-025CAN,2021-02-15T02:07:38.157312,14.54763003,.0133114,98.9896,343.4462,310.6140,104.8682,0,U,31632,999,72299,.39637E-3,.1851E-4,0
FENGYUN 1C DEB,1999-025CAP,2021-02-26T08:24:02.909952,14.01648155,.0068032,98.8797,109.1475,27.9898,332.4900,0,U,31633,999,70655,.43495E-3,.63E-5,0
FENGYUN 1C DEB,1999-025CAQ,2021-02-25T05:21:18.237600,13.92733987,.0092715,99.4445,45.6665,199.5365,160.2232,0,U,31634,999,32129,.34404E-4,-.1E-7,0
FENGYUN 1C DEB,1999-025CAS,2021-02-27T09:29:55.722048,15.13011601,.015124,98.8797,35.7297,339.7035,19.8219,0,U,31636,999,75037,.2589E-3,.5959E-4,0
FENGYUN 1C DEB,1999-025CAT,2021-02-27T06:59:54.186432,14.28441187,.0057226,99.1225,250.0122,226.8879,132.7506,0,U,31637,999,34396,.71392E-3,.177E-4,0
FENGYUN 1C DEB,1999-025CAV,2021-02-27T10:04:51.138912,13.84301901,.0162039,98.7114,115.2982,224.0806,147.0410,0,U,31639,999,69480,.52819E-4,.25E-6,0
FENGYUN 1C DEB,1999-025CAW,2021-02-27T09:17:13.405344,14.98838252,.0172099,99.2237,106.9015,170.6830,189.7651,0,U,31640,999,44730,.181E-3,.2876E-4,0
FENGYUN 1C DEB,1999-025CAY,2021-02-27T01:14:07.509120,14.29101282,.0127374,98.5880,148.0814,11.4949,348.9094,0,U,31642,999,72001,.67403E-4,.141E-5,0
FENGYUN 1C DEB,1999-025CAZ,2021-02-27T02:42:41.232672,13.98414808,.0100158,98.3813,2.8423,190.8952,237.5733,0,U,31643,999,70384,.14604E-3,.179E-5,0
FENGYUN 1C DEB,1999-025CBA,2021-02-27T05:38:35.253600,14.47013650,.021018,98.7082,209.7702,111.5868,10.2676,0,U,31644,999,45618,.14691E-3,.648E-5,0
FENGYUN 1C DEB,1999-025CBC,2021-02-24T07:39:12.570336,14.10429231,.003591,98.8716,94.6578,144.4923,215.8648,0,U,31646,999,38464,.18602E-3,.289E-5,0
FENGYUN 1C DEB,1999-025CBD,2021-02-27T05:49:52.455072,14.09973918,.0175261,98.0461,233.1940,202.0008,157.3576,0,U,31647,999,39318,.69705E-3,.138E-4,0
FENGYUN 1C DEB,1999-025CBE,2021-02-23T16:06:04.109760,13.96629484,.0054296,102.8132,231.8608,329.7153,30.0860,0,U,31648,999,47307,.68836E-3,.89E-5,0
FENGYUN 1C DEB,1999-025CBF,2021-02-26T14:04:47.196768,13.61434396,.0279379,98.1957,344.9317,198.2316,160.8655,0,U,31649,999,36968,.31177E-3,.275E-5,0
FENGYUN 1C DEB,1999-025CBG,2021-02-27T09:36:19.659456,14.38430932,.0236605,95.2083,114.6602,180.5128,179.5862,0,U,31650,999,38749,.91581E-3,.3853E-4,0
FENGYUN 1C DEB,1999-025CBJ,2021-02-27T20:09:20.790144,14.46651326,.0127689,95.9337,264.6868,55.6997,305.6212,0,U,31652,999,71930,.78379E-3,.3108E-4,0
FENGYUN 1C DEB,1999-025CBM,2021-02-27T08:35:28.131936,13.49122811,.0330972,99.2919,84.4468,259.9472,108.5604,0,U,31655,999,36037,.87538E-3,.727E-5,0
FENGYUN 1C DEB,1999-025CBN,2021-02-27T14:10:49.281024,14.22846351,.0033548,99.1906,292.6340,70.3570,320.0114,0,U,31656,999,71478,.41842E-3,.897E-5,0
FENGYUN 1C DEB,1999-025CBP,2021-02-26T23:23:15.916128,13.82411318,.0171561,102.2299,125.0657,285.6304,72.5965,0,U,31657,999,38590,.9106E-3,.1033E-4,0
FENGYUN 1C DEB,1999-025CBQ,2021-02-27T00:56:53.096352,13.81234345,.0263094,98.1617,103.2087,140.9027,221.1471,0,U,31658,999,45546,.72215E-3,.962E-5,0
FENGYUN 1C DEB,1999-025CBR,2021-02-26T00:11:56.595552,14.63647671,.0177388,98.9913,158.9728,224.6560,134.0238,0,U,31659,999,72820,.27843E-3,.1749E-4,0
FENGYUN 1C DEB,1999-025CBS,2021-02-25T07:50:31.487712,14.20631642,.0110836,98.5942,90.7653,237.5537,121.4884,0,U,31660,999,41783,.14274E-3,.283E-5,0
